C/2022 B4 (Bok),e,20.0436,340.6534,152.9391,381.1822,0.0001324,0.99638216,0.0000,01/29.8962/2022,2000,g 21.0,4.0
# From MPEC 2022-H04
P/2022 C1 (PANSTARRS),e,4.7615,113.1371,9.3625,7.220528,0.0507985,0.44809804,24.0024,02/20.0/2023,2000,g 12.0,4.0
# From MPEC 2022-OB6
P/2022 C2 (PANSTARRS),e,9.9800,135.2665,89.2886,6.043300,0.0663427,0.44230322,13.1036,02/20.0/2023,2000,g 12.5,4.0
# From MPEC 2022-OB6
P/2022 C3 (PANSTARRS),e,12.8165,139.0523,93.9319,9.640256,0.0329284,0.54623523,7.7014,02/20.0/2023,2000,g 11.5,4.0
# From MPEC 2022-K19
P/2022 D1 (PANSTARRS),e,44.0730,47.9583,88.6893,7.401830,0.0489435,0.54717378,26.4779,02/20.0/2023,2000,g 12.5,4.0
# From MPEC 2022-K19
C/2022 D2 (Kowalski),e,22.6544,312.4584,177.7860,366.7131,0.0001404,0.99576023,0.0000,03/27.5739/2022,2000,g 17.0,4.0
# From MPEC 2022-L66
P/2022 E1 (Christensen),e,19.0055,113.3441,115.0721,3.780589,0.1340803,0.22094167,34.1268,02/20.0/2023,2000,g 13.5,4.0
# From MPEC 2023-CD7
C/2022 E2 (ATLAS),h,09/13.9309/2024,137.1365,125.3636,41.6798,1.001117,3.667049,2000,5.0,4.0
# From MPEC 2023-CD7
C/2022 E3 (ZTF),h,01/12.7852/2023,109.1686,302.5557,145.8158,1.000326,1.112247,2000,7.5,4.0
# From MPEC 2022-WD2
C/2022 F1 (ATLAS),e,57.9725,350.6557,278.2751,11743,0.0000008,0.99949122,0.0000,08/05.2109/2022,2000,g  7.0,4.0
# From MPEC 2022-QD9
C/2022 F2 (NEOWISE),e,97.2928,58.6980,200.6243,23.85678,0.0084584,0.93356041,2.8214,02/20.0/2023,2000,g 14.5,4.0
# From MPEC 2022-P82
C/2022 H1 (PANSTARRS),e,49.8710,6.3679,246.2637,978.4425,0.0000322,0.99213748,0.0000,01/18.8769/2024,2000,g  6.0,4.0
# From MPEC 2022-VC5
C/2022 J1 (Maury-Attard),e,105.9363,280.7292,305.6662,47.62655,0.0029987,0.96631367,1.0974,02/20.0/2023,2000,g 14.9,4.0
# From MPEC 2023-BF4
C/2022 J2 (Bok),e,149.0927,252.5591,133.0713,92.00842,0.0011168,0.98013649,0.0000,10/27.0735/2022,2000,g 15.5,4.0
# From MPEC 2022-ST7
C/2022 K1 (Leonard),h,12/17.5277/2021,41.9677,136.2905,142.6810,1.002839,3.987981,2000,11.0,4.0
# From MPEC 2023-CD7
C/2022 L1 (Catalina),e,123.4679,300.0275,59.8562,543.8531,0.0000777,0.99707367,0.0000,09/28.2513/2022,2000,g 15.8,4.0
# From MPEC 2023-CD7
C/2022 L2 (ATLAS),h,03/12.3336/2024,129.3135,39.2421,199.9489,1.001308,2.692028,2000,6.5,4.0
# From MPEC 2023-CD7
P/2022 L3 (ATLAS),e,21.5431,29.8055,10.3271,6.502865,0.0594356,0.62787752,6.7190,02/20.0/2023,2000,g 16.5,4.0
# From MPEC 2022-N37
C/2022 L4 (PANSTARRS),e,141.2344,66.0521,125.3289,276.9048,0.0002139,0.98911155,0.0000,12/08.7741/2021,2000,g 14.0,4.0
# From MPEC 2022-WD2
P/2022 M1 (LONEOS-PANSTARRS),e,7.0241,322.8913,4.4530,4.891254,0.0911116,0.57865860,18.3780,02/20.0/2023,2000,g 17.0,4.0
# From MPEC 2022-VC5
C/2022 N1 (Attard-Maury),e,164.7406,301.8615,41.0765,37.05248,0.0043700,0.96000914,0.7121,02/20.0/2023,2000,g 16.9,4.0
# From MPEC 2022-QD9
C/2022 N2 (PANSTARRS),h,07/31.3903/2025,5.5025,319.7357,75.3560,1.004247,3.825589,2000,6.0,4.0
# From MPEC 2023-B57
C/2022 O1 (ATLAS),h,02/15.5788/2022,71.0432,49.9137,268.8876,1.004508,7.430253,2000,6.0,4.0
# From MPEC 2023-CD7
P/2022 O2 (PANSTARRS),e,9.4243,330.4944,48.6333,6.312155,0.0621495,0.72167400,2.7292,02/20.0/2023,2000,g 16.0,4.0
# From MPEC 2023-BF4
C/2022 P1 (NEOWISE),e,154.6067,205.0821,249.9388,18.41306,0.0124743,0.91336643,1.0418,02/20.0/2023,2000,g 13.0,4.0
# From MPEC 2023-C45
P/2022 P2 (ZTF),e,12.4439,291.2248,137.5960,4.478625,0.1039889,0.55740862,23.3153,02/20.0/2023,2000,g 12.5,4.0
# From MPEC 2023-CD7
C/2022 P3 (ZTF),e,59.5175,72.2332,0.0976,244.7017,0.0002575,0.98953263,0.0000,07/27.3553/2022,2000,g 12.0,4.0
# From MPEC 2023-BF4
C/2022 Q2 (ATLAS),e,151.4853,352.9437,44.0679,32.61338,0.0052919,0.94958899,0.1027,02/20.0/2023,2000,g 13.0,4.0
# From MPEC 2023-CD7
C/2022 QE78 (ATLAS),h,09/10.4188/2025,36.5489,119.9418,0.3423,1.002608,5.483332,2000,5.0,4.0
# From MPEC 2022-WD2
P/2022 R1 (PANSTARRS),e,7.4070,176.1753,222.5097,7.202608,0.0509882,0.50432087,348.0936,02/20.0/2023,2000,g 11.5,4.0
# From MPEC 2022-Y15
C/2022 R2 (ATLAS),e,52.8962,60.4034,78.3756,420.9355,0.0001141,0.99849725,0.0000,10/25.2202/2022,2000,g 17.0,4.0
# From MPEC 2023-CD7
C/2022 R3 (Leonard),h,03/03.9721/2023,43.1125,8.2992,72.6632,1.004325,5.134718,2000,9.0,4.0
# From MPEC 2022-X67
P/2022 R4 (PANSTARRS),e,21.0217,176.6235,197.4285,3.836107,0.1311801,0.49020587,29.4680,02/20.0/2023,2000,g 16.5,4.0
# From MPEC 2022-WQ9
P/2022 R5 (PANSTARRS),e,15.2933,115.0544,240.6175,3.069580,0.1832676,0.19553335,49.1934,02/20.0/2023,2000,g 16.0,4.0
# From MPEC 2023-A50
C/2022 R6 (PANSTARRS),h,08/25.7793/2025,57.0209,150.7588,319.8554,1.003155,6.568871,2000,5.0,4.0
# From MPEC 2023-CD7
P/2022 S1 (PANSTARRS),e,34.5821,136.0906,262.7554,6.408318,0.0607558,0.50821931,11.2308,02/20.0/2023,2000,g 13.0,4.0
# From MPEC 2022-VC5
C/2022 S3 (PANSTARRS),h,01/21.6839/2023,78.5529,157.3230,267.9639,1.000358,0.838392,2000,17.0,4.0
# From MPEC 2023-CD7
C/2022 S4 (Lemmon),h,07/17.0515/2024,101.0879,220.1473,268.2624,1.003578,2.766421,2000,8.0,4.0
# From MPEC 2023-A50
C/2022 S5 (PANSTARRS),e,136.5328,214.8593,232.7757,20.40169,0.0106956,0.89320541,0.9042,02/20.0/2023,2000,g 15.0,4.0
# From MPEC 2023-C52
C/2022 T1 (Lemmon),e,22.5428,236.9215,324.3351,4939,0.0000028,0.99930257,0.0000,02/17.6108/2024,2000,g  9.0,4.0
# From MPEC 2023-CD7
C/2022 U1 (Leonard),e,128.1297,72.5035,78.5109,22819,0.0000003,0.99981580,0.0000,03/25.5010/2024,2000,g  8.5,4.0
# From MPEC 2023-CD7
C/2022 U2 (ATLAS),e,48.2506,304.4754,147.9105,96.40955,0.0010412,0.98622501,0.0000,01/14.2224/2023,2000,g 16.0,4.0
# From MPEC 2023-CD7
C/2022 U3 (Bok),h,07/27.6932/2024,33.6210,272.8089,188.9561,1.002976,4.829838,2000,7.5,4.0
# From MPEC 2023-CD7
C/2022 U4 (Bok),e,52.0365,132.9305,89.0091,3557,0.0000046,0.99918516,0.0000,08/03.6886/2023,2000,g 10.5,4.0
# From MPEC 2023-CD7
P/2022 W1 (Rankin),e,13.4660,38.8162,17.7876,6.967326,0.0535926,0.51662502,8.4286,02/20.0/2023,2000,g 12.5,4.0
# From MPEC 2023-CD7
C/2022 W2 (ATLAS),e,63.5313,320.4510,123.2510,330.0386,0.0001644,0.99053815,0.0000,03/08.6568/2023,2000,g 11.5,4.0
# From MPEC 2023-CD7
C/2022 W3 (Leonard),e,103.5595,132.2698,116.5186,285.5109,0.0002043,0.99510445,0.0000,06/22.7698/2023,2000,g 13.0,4.0
# From MPEC 2023-CD7
C/2022 Y1 (Hogan),e,18.8583,285.9148,174.7412,12.54859,0.0221723,0.76429842,1.8795,02/20.0/2023,2000,g 13.0,4.0
# From MPEC 2023-CD7
C/2022 Y2 (Lemmon),e,165.9068,216.3476,105.5484,19.68250,0.0112871,0.87069552,359.6543,02/20.0/2023,2000,g 13.5,4.0
# From MPEC 2023-CD7
C/2023 A1 (Leonard),e,94.7534,318.2986,159.2524,279.7754,0.0002106,0.99344171,0.0000,03/18.7312/2023,2000,g 14.5,4.0
# From MPEC 2023-CD7
P/2023 B1 (PANSTARRS),e,14.5829,78.5071,86.9121,7.032895,0.0528449,0.12844692,352.2237,02/20.0/2023,2000,g  5.5,4.0
# From MPEC 2023-CD7
C/2023 B2 (ATLAS),e,40.7677,218.1037,317.4313,469.7917,0.0000968,0.99629061,0.0000,03/10.5263/2023,2000,g 14.5,4.0
# From MPEC 2023-D10
P/2023 B3 (PANSTARRS),e,9.2079,153.9346,238.7072,4.541081,0.1018510,0.12848423,92.2066,02/20.0/2023,2000,g 10.5,4.0
# From  98, 1083
1P/Halley,e,162.1709,59.4121,112.3271,17.86917,0.0130481,0.96673944,176.2121,02/20.0/2023,2000,g  4.0,6.0
# From MPEC 2022-Y15
2P/Encke,e,11.3525,334.0759,187.2369,2.219490,0.2980740,0.84714175,287.1301,02/20.0/2023,2000,g 11.5,6.0
# From MPEC 2022-WD2
4P/Faye,e,8.0092,192.9237,207.0489,3.826605,0.1316690,0.57683191,69.6599,02/20.0/2023,2000,g  8.0,6.0
# From MPEC 2022-WD2
6P/d'Arrest,e,19.5106,138.9388,178.0911,3.497047,0.1507134,0.61247876,78.4211,02/20.0/2023,2000,g  7.5,16.0
# From MPEC 2023-A50
7P/Pons-Winnecke,e,22.3731,93.3277,172.5424,3.409834,0.1565324,0.63853220,99.2459,02/20.0/2023,2000,g 10.0,6.0
# From MPEC 2022-HC2
8P/Tuttle,e,54.9325,270.1926,207.4722,5.703490,0.0723591,0.82019844,39.1651,02/20.0/2023,2000,g  8.0,8.0
# From MPEC 2023-B57
9P/Tempel,e,10.4741,68.6402,179.5325,3.150978,0.1762122,0.50965434,61.9918,02/20.0/2023,2000,g  5.5,10.0
# From MPEC 2023-CD7
10P/Tempel,e,12.0357,117.8147,195.5250,3.061635,0.1839814,0.53811816,128.4041,02/20.0/2023,2000,g  5.0,10.0
# From MPEC 2023-A50
11P/Tempel-Swift-LINEAR,e,14.4289,238.8724,167.9914,3.283807,0.1656295,0.57746255,135.0547,02/20.0/2023,2000,g 17.0,4.0
# From MPEC 2022-UE6
12P/Pons-Brooks,e,74.1842,255.8414,198.9783,17.19695,0.0138206,0.95457647,354.1113,02/20.0/2023,2000,g  5.0,6.0
# From  27, 604
13P/Olbers,e,44.6209,85.9288,64.3854,16.84115,0.0142609,0.93022879,352.9145,02/20.0/2023,2000,g  5.0,6.0
# From MPEC 2021-F20
14P/Wolf,e,27.9278,202.0404,159.1117,4.257917,0.1121782,0.35718200,213.5014,02/20.0/2023,2000,g  5.5,12.0
# From MPEC 2022-ED3
15P/Finlay,e,6.7979,13.7099,347.8722,3.508330,0.1499869,0.71700234,87.9664,02/20.0/2023,2000,g 12.0,4.0
# From MPEC 2022-X67
16P/Brooks,e,3.0114,138.8680,245.2563,3.659057,0.1408154,0.48642908,94.7046,02/20.0/2023,2000,g  7.5,10.0
# From MPEC 2023-BF4
17P/Holmes,e,19.0277,326.6278,24.5659,3.638044,0.1420372,0.42746258,103.6944,02/20.0/2023,2000,g 10.0,6.0
# From MPEC 2023-BF4
19P/Borrelly,e,29.3059,74.2331,351.9392,3.606483,0.1439058,0.63780111,55.1353,02/20.0/2023,2000,g  4.5,10.0
# From MPEC 2021-F20
21P/Giacobini-Zinner,e,32.0592,195.3454,172.8925,3.494737,0.1508629,0.71125569,244.6802,02/20.0/2023,2000,g 11.4,4.0
# From MPEC 2023-BF4
22P/Kopff,e,4.7414,120.7740,163.0146,3.441043,0.1544077,0.54935233,52.3187,02/20.0/2023,2000,g  3.0,10.4
# From MPC 14747
23P/Brorsen-Metcalf,e,19.2387,312.0135,129.1749,16.94309,0.0141324,0.97211527,0.0000,08/10.2406/1989,2000,g 10.0,6.0
# From MPC110085
24P/Schaumasse,e,11.5042,78.3343,58.4439,4.055202,0.1206939,0.70772046,232.8045,02/20.0/2023,2000,g  6.5,14.0
# From MPEC 2022-Y15
26P/Grigg-Skjellerup,e,22.4328,211.5405,2.1492,3.015329,0.1882357,0.64049106,301.9536,02/20.0/2023,2000,g 12.0,16.0
# From MPC 78188
27P/Crommelin,e,29.3593,250.6689,195.8589,9.180777,0.0354311,0.91901789,149.8078,02/20.0/2023,2000,g 12.0,8.0
# From MPEC 2023-CD7
28P/Neujmin,e,14.3109,346.3410,347.4643,6.981369,0.0534310,0.77360500,37.9469,02/20.0/2023,2000,g  8.5,6.0
# From MPEC 2023-CD7
